id,postcode,suburb,state,latitude,longitude
398,1001,Sydney,NSW,-33.790,151.270
399,1002,Sydney,NSW,-33.790,151.270
400,1003,Sydney,NSW,-33.790,151.270
401,1004,Sydney,NSW,-33.790,151.270
402,1005,Sydney,NSW,-33.790,151.270
403,1006,Sydney,NSW,-33.790,151.270
404,1007,Sydney,NSW,-33.790,151.270
405,1008,Sydney,NSW,-33.790,151.270
406,1009,Sydney,NSW,-33.790,151.270
407,1010,Sydney,NSW,-33.790,151.270
408,1011,Sydney,NSW,-33.790,151.270
409,1020,Sydney,NSW,-33.790,151.270
410,1021,Sydney,NSW,-33.790,151.270
411,1022,Sydney,NSW,-33.790,151.270
412,1023,Sydney,NSW,-33.790,151.270
413,1025,Sydney,NSW,-33.790,151.270
414,1026,Sydney,NSW,-33.790,151.270
415,1027,Sydney,NSW,-33.790,151.270
416,1028,Sydney,NSW,-33.790,151.270
417,1029,Sydney,NSW,-33.790,151.270
418,1030,Sydney,NSW,-33.790,151.270
419,1031,Sydney,NSW,-33.790,151.270
420,1032,Sydney,NSW,-33.660,150.870
421,1033,Sydney,NSW,-33.790,151.270
422,1034,Sydney,NSW,-33.790,151.270
423,1035,Sydney,NSW,-33.790,151.270
424,1036,Sydney,NSW,-33.790,151.270
425,1037,Sydney,NSW,-33.790,151.270
426,1038,Sydney,NSW,-33.790,151.270
427,1039,Sydney,NSW,-33.790,151.270
428,1040,Sydney,NSW,-33.790,151.270
429,1041,Sydney,NSW,-33.790,151.270
430,1042,Sydney,NSW,-33.790,151.270
431,1043,Sydney,NSW,-33.790,151.270
432,1044,Sydney,NSW,-33.790,151.270
433,1045,Sydney,NSW,-33.790,151.270
434,1046,Sydney,NSW,-33.790,151.270
435,1100,Sydney,NSW,-33.790,151.270
436,1101,Sydney,NSW,-33.790,151.270
437,1105,Sydney,NSW,-33.790,151.270
438,1106,Sydney,NSW,-33.790,151.270
439,1107,Sydney,NSW,-33.790,151.270
440,1108,Sydney,NSW,-33.790,151.270
441,1109,Sydney,NSW,-33.790,151.270
442,1110,Sydney,NSW,-33.790,151.270
443,1112,Sydney,NSW,-33.790,151.270
444,1113,Sydney,NSW,-33.790,151.270
445,1114,Sydney,NSW,-33.790,151.270
446,1115,Sydney,NSW,-33.790,151.270
447,1116,Sydney,NSW,-33.670,150.870
448,1117,Sydney,NSW,-33.660,150.870
449,1118,Sydney,NSW,-33.790,151.270
450,1119,Sydney,NSW,-33.790,151.270
451,1120,Sydney,NSW,-33.790,151.270
452,1121,Sydney,NSW,-33.790,151.270
453,1122,Sydney,NSW,-33.790,151.270
454,1123,Sydney,NSW,-33.790,151.270
455,1124,Sydney,NSW,-33.790,151.270
456,1125,Sydney,NSW,-33.790,151.270
457,1126,Sydney,NSW,-33.790,151.270
458,1127,Sydney,NSW,-33.790,151.270
459,1128,Sydney,NSW,-33.790,151.270
460,1129,Sydney,NSW,-33.790,151.270
461,1130,Sydney,NSW,-33.790,151.270
462,1131,Sydney,NSW,-33.790,151.270
463,1132,Sydney,NSW,-33.660,150.870
464,1133,Sydney,NSW,-33.790,151.270
465,1134,Sydney,NSW,-33.790,151.270
466,1135,Sydney,NSW,-33.790,151.270
467,1136,Sydney,NSW,-33.790,151.270
468,1137,Sydney,NSW,-33.790,151.270
469,1138,Sydney,NSW,-33.790,151.270
470,1139,Sydney,NSW,-33.790,151.270
471,1140,Sydney,NSW,-33.790,151.270
472,1141,Sydney,NSW,-33.790,151.270
473,1142,Sydney,NSW,-33.790,151.270
474,1143,Sydney,NSW,-33.790,151.270
475,1144,Sydney,NSW,-33.790,151.270
476,1145,Sydney,NSW,-33.790,151.270
477,1146,Sydney,NSW,-33.790,151.270
478,1147,Sydney,NSW,-33.790,151.270
479,1148,Sydney,NSW,-33.790,151.270
480,1149,Sydney,NSW,-33.790,151.270
481,1150,Sydney,NSW,-33.790,151.270
482,1151,Sydney,NSW,-33.790,151.270
483,1152,Sydney,NSW,-33.790,151.270
484,1153,Sydney,NSW,-33.790,151.270
485,1154,Sydney,NSW,-33.790,151.270
486,1155,Sydney,NSW,-33.790,151.270
487,1156,Sydney,NSW,-33.790,151.270
488,1157,Sydney,NSW,-33.790,151.270
489,1158,Sydney,NSW,-33.790,151.270
490,1159,Sydney,NSW,-33.790,151.270
491,1160,Sydney,NSW,-33.790,151.270
492,1161,Sydney,NSW,-33.790,151.270
493,1162,Sydney,NSW,-33.790,151.270
494,1163,Sydney,NSW,-33.790,151.270
495,1164,Sydney,NSW,-33.790,151.270
496,1165,Sydney,NSW,-33.790,151.270
497,1166,Sydney,NSW,-33.790,151.270
498,1167,Sydney,NSW,-33.790,151.270
499,1168,Sydney,NSW,-33.790,151.270
500,1169,Sydney,NSW,-33.790,151.270
501,1170,Sydney,NSW,-33.790,151.270
502,1171,Sydney,NSW,-33.790,151.270
503,1172,Sydney,NSW,-33.790,151.270
504,1173,Sydney,NSW,-33.790,151.270
505,1174,Sydney,NSW,-33.790,151.270
506,1175,Sydney,NSW,-33.790,151.270
507,1176,Sydney,NSW,-33.790,151.270
508,1177,Sydney,NSW,-33.790,151.270
509,1178,Sydney,NSW,-33.790,151.270
510,1179,Sydney,NSW,-33.790,151.270
511,1180,Sydney,NSW,-33.790,151.270
512,1181,Sydney,NSW,-33.790,151.270
513,1182,Sydney,NSW,-33.790,151.270
514,1183,Sydney,NSW,-33.790,151.270
515,1184,Sydney,NSW,-33.790,151.270
516,1185,Sydney,NSW,-33.790,151.270
517,1186,Sydney,NSW,-33.790,151.270
518,1187,Sydney,NSW,-33.790,151.270
519,1188,Sydney,NSW,-33.790,151.270
520,1189,Sydney,NSW,-33.790,151.270
521,1190,Sydney,NSW,-33.790,151.270
522,1191,Sydney,NSW,-33.790,151.270
523,1192,Sydney,NSW,-34.790,147.690
524,1193,Sydney,NSW,-33.790,151.270
525,1194,Sydney,NSW,-33.790,151.270
526,1195,Sydney,NSW,-33.790,151.270
527,1196,Sydney,NSW,-33.790,151.270
528,1197,Sydney,NSW,-33.790,151.270
529,1198,Sydney,NSW,-33.790,151.270
530,1199,Sydney,NSW,-33.790,151.270
531,1200,Sydney,NSW,-33.790,151.270
532,1201,Sydney,NSW,-33.790,151.270
533,1202,Sydney,NSW,-33.790,151.270
534,1203,Sydney,NSW,-33.790,151.270
535,1204,Sydney,NSW,-33.790,151.270
536,1205,Sydney,NSW,-33.790,151.270
537,1206,Sydney,NSW,-33.790,151.270
538,1207,Sydney,NSW,-33.790,151.270
539,1208,Haymarket,NSW,-29.820,151.660
540,1209,"Australia Square",NSW,-33.890,151.180
541,1210,"Australia Square",NSW,-33.890,151.180
542,1211,"Australia Square",NSW,-33.890,151.180
543,1212,"Australia Square",NSW,-33.890,151.180
544,1213,"Australia Square",NSW,-33.890,151.180
545,1214,"Australia Square",NSW,-33.890,151.180
546,1215,"Australia Square",NSW,-33.890,151.180
547,1216,"Grosvenor Place",NSW,-33.740,151.030
548,1217,"Grosvenor Place",NSW,-33.740,151.030
549,1218,"Grosvenor Place",NSW,-33.740,151.030
550,1219,"Grosvenor Place",NSW,-33.740,151.030
551,1220,"Grosvenor Place",NSW,-33.740,151.030
552,1221,"Royal Exchange",NSW,-33.870,151.210
553,1222,"Royal Exchange",NSW,-33.870,151.210
554,1223,"Royal Exchange",NSW,-33.870,151.210
555,1224,"Royal Exchange",NSW,-33.870,151.210
556,1225,"Royal Exchange",NSW,-33.870,151.210
557,1226,"Queen Victoria Building",NSW,-33.870,151.210
558,1227,"Queen Victoria Building",NSW,-33.870,151.210
559,1228,"Queen Victoria Building",NSW,-33.870,151.210
560,1229,"Queen Victoria Building",NSW,-33.870,151.210
561,1230,"Queen Victoria Building",NSW,-33.870,151.210
562,1231,"Sydney South",NSW,-33.820,151.040
563,1232,"Sydney South",NSW,-33.820,151.040
564,1233,"Sydney South",NSW,-33.820,151.040
565,1234,"Sydney South",NSW,-33.820,151.040
566,1235,"Sydney South",NSW,-33.820,151.040
567,1236,Haymarket,NSW,-29.820,151.660
568,1237,Haymarket,NSW,-29.820,151.660
569,1238,Haymarket,NSW,-29.820,151.660
570,1239,Haymarket,NSW,-29.820,151.660
571,1240,Haymarket,NSW,-29.820,151.660
572,1291,Sydney,NSW,-33.790,151.270
573,1292,Sydney,NSW,-33.790,151.270
574,1293,Sydney,NSW,-33.790,151.270
575,1294,Sydney,NSW,-33.790,151.270
576,1295,Sydney,NSW,-33.790,151.270
577,1296,Sydney,NSW,-33.790,151.270
578,1297,Sydney,NSW,-33.790,151.270
579,1298,Sydney,NSW,-33.790,151.270
580,1299,Sydney,NSW,-33.790,151.270
581,1300,Darlinghurst,NSW,-33.880,151.220
582,1311,"Eastern Suburbs MC",NSW,0.000,0.000
583,1312,"Eastern Suburbs MC",NSW,0.000,0.000
584,1313,"Eastern Suburbs MC",NSW,0.000,0.000
585,1314,"Eastern Suburbs MC",NSW,0.000,0.000
586,1315,"Eastern Suburbs MC",NSW,0.000,0.000
587,1316,"Eastern Suburbs MC",NSW,0.000,0.000
588,1317,"Eastern Suburbs MC",NSW,0.000,0.000
589,1318,"Eastern Suburbs MC",NSW,0.000,0.000
590,1319,"Eastern Suburbs MC",NSW,0.000,0.000
591,1320,"Eastern Suburbs MC",NSW,0.000,0.000
592,1321,"Eastern Suburbs MC",NSW,0.000,0.000
593,1322,"Eastern Suburbs MC",NSW,0.000,0.000
594,1323,"Eastern Suburbs MC",NSW,0.000,0.000
595,1324,"Eastern Suburbs MC",NSW,0.000,0.000
596,1325,"Eastern Suburbs MC",NSW,0.000,0.000
597,1326,"Eastern Suburbs MC",NSW,0.000,0.000
598,1327,"Eastern Suburbs MC",NSW,0.000,0.000
599,1328,"Eastern Suburbs MC",NSW,0.000,0.000
600,1329,"Eastern Suburbs MC",NSW,0.000,0.000
601,1330,"Eastern Suburbs MC",NSW,0.000,0.000
602,1331,"Eastern Suburbs MC",NSW,0.000,0.000
603,1332,"Eastern Suburbs MC",NSW,0.000,0.000
604,1333,"Eastern Suburbs MC",NSW,0.000,0.000
605,1334,"Eastern Suburbs MC",NSW,0.000,0.000
606,1335,"Potts Point",NSW,-33.820,151.120
607,1340,"Kings Cross",NSW,-35.540,148.020
608,1350,Woollahra,NSW,0.000,0.000
609,1355,"Bondi Junction",NSW,-33.890,151.260
610,1360,"Double Bay",NSW,-33.880,151.240
611,1391,"Ato Activity Statements",NSW,0.000,0.000
612,1401,Broadway,NSW,-33.880,151.200
613,1416,"Southern Suburbs MC",NSW,0.000,0.000
614,1419,"Southern Suburbs MC",NSW,0.000,0.000
615,1420,"Strawberry Hills",NSW,-33.730,150.930
616,1422,"Strawberry Hills",NSW,-33.730,150.930
617,1423,"Strawberry Hills",NSW,-33.730,150.930
618,1424,"Strawberry Hills",NSW,-33.730,150.930
619,1425,"Strawberry Hills",NSW,-33.730,150.930
620,1426,"Strawberry Hills",NSW,-33.730,150.930
621,1427,"Strawberry Hills",NSW,-33.730,150.930
622,1428,"Strawberry Hills",NSW,-33.730,150.930
623,1429,"Strawberry Hills",NSW,-33.730,150.930
624,1430,Eveleigh,NSW,-33.890,151.200
625,1435,Alexandria,NSW,-33.710,151.110
626,1440,Waterloo,NSW,-33.900,151.060
627,1441,Waterloo,NSW,-33.900,151.060
628,1445,Rosebery,NSW,-34.080,151.010
629,1450,Camperdown,NSW,-30.310,153.140
630,1455,Botany,NSW,-33.950,151.200
631,1460,Mascot,NSW,-33.930,151.210
632,1465,Kensington,NSW,-33.890,151.140
633,1466,"Unsw Sydney",NSW,-33.910,151.230
634,1470,Drummoyne,NSW,-33.840,151.150
635,1475,Marrickville,NSW,-33.910,151.150
636,1476,Marrickville,NSW,-33.910,151.150
637,1480,Kingsgrove,NSW,-33.940,151.100
638,1481,"Hurstville BC",NSW,0.000,0.000
639,1484,"Kingsgrove DC",NSW,0.000,0.000
640,1485,Kogarah,NSW,0.000,0.000
641,1487,Kogarah,NSW,0.000,0.000
642,1490,Miranda,NSW,-34.040,151.110
643,1493,Hurstville,NSW,-33.980,151.090
644,1495,Caringbah,NSW,-34.050,151.120
645,1499,Sutherland,NSW,-34.020,151.060
646,1515,"West Chatswood",NSW,-33.820,151.210
647,1560,Northbridge,NSW,0.000,0.000
648,1565,"Milsons Point",NSW,-33.870,151.190
649,1570,Artarmon,NSW,-33.810,151.190
650,1582,"Crows Nest",NSW,-33.830,151.200
651,1585,"Crows Nest",NSW,-33.830,151.200
652,1590,"St Leonards",NSW,-33.290,151.470
653,1595,"Lane Cove",NSW,-33.790,151.190
654,1597,"Lane Cove",NSW,-33.790,151.190
655,1602,"Lane Cove DC",NSW,0.000,0.000
656,1608,"Lane Cove DC",NSW,0.000,0.000
657,1610,"Lane Cove DC",NSW,0.000,0.000
658,1611,"Lane Cove DC",NSW,0.000,0.000
659,1630,Hornsby,NSW,-33.710,151.100
660,1635,"Hornsby Westfield",NSW,0.000,0.000
661,1639,"Frenchs Forest",NSW,-33.790,151.250
662,1640,"Frenchs Forest",NSW,-33.790,151.250
663,1655,Manly,NSW,-33.330,151.510
664,1658,"Mona Vale",NSW,-33.700,151.220
665,1660,"Mona Vale",NSW,-33.700,151.220
666,1670,"North Ryde BC",NSW,0.000,0.000
667,1675,Gladesville,NSW,-33.830,151.140
668,1680,Ryde,NSW,-33.760,151.140
669,1685,"West Ryde",NSW,-33.800,151.090
670,1690,"Northern Suburbs MC",NSW,0.000,0.000
671,1691,"Northern Suburbs MC",NSW,0.000,0.000
672,1692,"Northern Suburbs MC",NSW,0.000,0.000
673,1693,"Northern Suburbs MC",NSW,0.000,0.000
674,1694,"Northern Suburbs MC",NSW,0.000,0.000
675,1695,"Northern Suburbs MC",NSW,0.000,0.000
676,1696,"Northern Suburbs MC",NSW,0.000,0.000
677,1697,"Northern Suburbs MC",NSW,0.000,0.000
678,1698,"Northern Suburbs MC",NSW,0.000,0.000
679,1699,"Northern Suburbs MC",NSW,0.000,0.000
680,1700,Ermington,NSW,-33.950,151.210
681,1701,"Rydalmere BC",NSW,0.000,0.000
682,1710,Epping,NSW,-33.780,151.120
683,1712,Epping,NSW,-33.780,151.120
684,1715,"Pennant Hills",NSW,-33.760,151.050
685,1730,"Seven Hills",NSW,-33.760,150.970
686,1740,Parramatta,NSW,-33.890,151.140
687,1741,Parramatta,NSW,-33.890,151.140
688,1750,"North Parramatta",NSW,-33.860,151.020
689,1755,"Baulkham Hills",NSW,-33.770,150.970
690,1765,"Castle Hill",NSW,-33.740,151.030
691,1771,"Pennant Hills",NSW,-33.760,151.050
692,1781,"Seven Hills MC",NSW,0.000,0.000
693,1790,"St Marys",NSW,-33.860,151.200
694,1797,"Penrith South DC",NSW,0.000,0.000
695,1800,Ashfield,NSW,-34.100,150.780
696,1805,Burwood,NSW,-33.890,151.100
697,1811,Silverwater,NSW,-33.820,151.050
698,1816,Strathfield,NSW,-33.880,151.090
699,1819,Strathfield,NSW,-33.880,151.090
700,1825,Lidcombe,NSW,0.000,0.000
701,1826,Lidcombe,NSW,0.000,0.000
702,1830,Granville,NSW,-33.860,150.950
703,1831,Granville,NSW,-33.860,150.950
704,1835,Auburn,NSW,-33.880,151.020
705,1848,Guildford,NSW,-33.850,150.970
706,1851,"Wetherill Park DC",NSW,0.000,0.000
707,1860,Fairfield,NSW,-33.850,150.960
708,1871,Liverpool,NSW,-33.890,151.100
709,1875,Moorebank,NSW,-33.950,150.920
710,1885,Bankstown,NSW,-33.910,151.020
711,1888,Bankstown,NSW,-33.910,151.020
712,1890,Ingleburn,NSW,-33.960,150.800
713,1891,Milperra,NSW,-33.930,151.000
714,1900,"Leightonfield MC",NSW,0.000,0.000
715,1902,"Leightonfield MC",NSW,0.000,0.000
716,2000,Barangaroo,NSW,-33.860,151.210
717,2000,"Dawes Point",NSW,-33.860,151.210
718,2000,Haymarket,NSW,-33.860,151.210
719,2000,"Millers Point",NSW,-33.860,151.210
720,2000,"Parliament House",NSW,-33.860,151.210
721,2000,Sydney,NSW,-33.860,151.210
722,2000,"Sydney South",NSW,-33.860,151.210
723,2000,"The Rocks",NSW,-33.860,151.210
724,2001,Sydney,NSW,-33.790,151.270
725,2002,"World Square",NSW,-35.970,146.410
726,2004,"Alexandria MC",NSW,0.000,0.000
727,2004,"Eastern Suburbs MC",NSW,0.000,0.000
728,2006,"The University Of Sydney",NSW,-33.890,151.190
729,2007,Broadway,NSW,-33.880,151.200
730,2007,Ultimo,NSW,-33.880,151.200
731,2008,Chippendale,NSW,-33.890,151.200
732,2008,Darlington,NSW,-33.890,151.200
733,2009,Pyrmont,NSW,-33.870,151.190
734,2010,Darlinghurst,NSW,-33.880,151.220
735,2010,"Surry Hills",NSW,-33.880,151.220
736,2011,"Elizabeth Bay",NSW,-33.870,151.230
737,2011,"Hmas Kuttabul",NSW,-33.870,151.230
738,2011,"Potts Point",NSW,-33.870,151.230
739,2011,"Rushcutters Bay",NSW,-33.870,151.230
740,2011,Woolloomooloo,NSW,-33.870,151.230
741,2012,"Strawberry Hills",NSW,-33.730,150.930
742,2013,"Strawberry Hills",NSW,-33.730,150.930
743,2015,Alexandria,NSW,-33.900,151.200
744,2015,Beaconsfield,NSW,-33.900,151.200
745,2015,Eveleigh,NSW,-33.900,151.200
746,2016,Redfern,NSW,-33.890,151.200
747,2017,Waterloo,NSW,-33.900,151.210
748,2017,Zetland,NSW,-33.900,151.210
749,2018,Eastlakes,NSW,-33.930,151.210
750,2018,Rosebery,NSW,-33.930,151.210
751,2019,Banksmeadow,NSW,-33.960,151.210
752,2019,Botany,NSW,-33.960,151.210
753,2020,Mascot,NSW,-33.930,151.190
754,2020,"Sydney Domestic Airport",NSW,-33.930,151.190
755,2020,"Sydney International Airport",NSW,-33.930,151.190
756,2021,"Centennial Park",NSW,-33.890,151.220
757,2021,"Moore Park",NSW,-33.890,151.220
758,2021,Paddington,NSW,-33.890,151.220
759,2022,"Bondi Junction",NSW,-33.890,151.250
760,2022,"Bondi Junction Plaza",NSW,-33.890,151.250
761,2022,"Queens Park",NSW,-33.890,151.250
762,2023,"Bellevue Hill",NSW,-33.890,151.260
763,2024,Bronte,NSW,-33.900,151.260
764,2024,Waverley,NSW,-33.900,151.260
765,2025,Woollahra,NSW,-33.890,151.240
766,2026,Bondi,NSW,-33.890,151.260
767,2026,"Bondi Beach",NSW,-33.890,151.260
768,2026,"North Bondi",NSW,-33.890,151.260
769,2026,Tamarama,NSW,-33.890,151.260
770,2027,"Darling Point",NSW,-33.870,151.240
771,2027,Edgecliff,NSW,-33.870,151.240
772,2027,"Hmas Rushcutters",NSW,-33.870,151.240
773,2027,"Point Piper",NSW,-33.870,151.240
774,2028,"Double Bay",NSW,-33.880,151.240
775,2029,"Rose Bay",NSW,-33.870,151.280
776,2030,"Dover Heights",NSW,-33.870,151.280
777,2030,"Hmas Watson",NSW,-33.870,151.280
778,2030,"Rose Bay North",NSW,-33.870,151.280
779,2030,Vaucluse,NSW,-33.870,151.280
780,2030,"Watsons Bay",NSW,-33.870,151.280
781,2031,Clovelly,NSW,-33.910,151.260
782,2031,"Clovelly West",NSW,-33.910,151.260
783,2031,Randwick,NSW,-33.910,151.260
784,2031,"St Pauls",NSW,-33.910,151.260
785,2032,Daceyville,NSW,-33.930,151.230
786,2032,Kingsford,NSW,-33.930,151.230
787,2033,Kensington,NSW,-33.910,151.220
788,2034,Coogee,NSW,-33.920,151.250
789,2034,"South Coogee",NSW,-33.920,151.250
790,2035,Maroubra,NSW,-33.950,151.240
791,2035,"Maroubra South",NSW,-33.950,151.240
792,2035,Pagewood,NSW,-33.950,151.240
793,2036,Chifley,NSW,-33.980,151.240
794,2036,Eastgardens,NSW,-33.980,151.240
795,2036,Hillsdale,NSW,-33.980,151.240
796,2036,"La Perouse",NSW,-33.980,151.240
797,2036,"Little Bay",NSW,-33.980,151.240
798,2036,Malabar,NSW,-33.980,151.240
799,2036,Matraville,NSW,-33.980,151.240
800,2036,"Phillip Bay",NSW,-33.980,151.240
801,2036,"Port Botany",NSW,-33.980,151.240
802,2037,"Forest Lodge",NSW,-33.880,151.180
803,2037,Glebe,NSW,-33.880,151.180
804,2038,Annandale,NSW,-33.880,151.170
805,2039,Rozelle,NSW,-33.860,151.170
806,2040,Leichhardt,NSW,-33.880,151.160
807,2040,Lilyfield,NSW,-33.880,151.160
808,2041,Balmain,NSW,-33.860,151.180
809,2041,"Balmain East",NSW,-33.860,151.180
810,2041,Birchgrove,NSW,-33.860,151.180
811,2042,Enmore,NSW,-33.900,151.170
812,2042,Newtown,NSW,-33.900,151.170
813,2043,Erskineville,NSW,-33.900,151.190
814,2044,"St Peters",NSW,-33.910,151.180
815,2044,Sydenham,NSW,-33.910,151.180
816,2044,Tempe,NSW,-33.910,151.180
817,2045,Haberfield,NSW,-33.880,151.140
818,2046,Abbotsford,NSW,-33.850,151.130
819,2046,"Canada Bay",NSW,-33.850,151.130
820,2046,Chiswick,NSW,-33.850,151.130
821,2046,"Five Dock",NSW,-33.850,151.130
822,2046,"Rodd Point",NSW,-33.850,151.130
823,2046,"Russell Lea",NSW,-33.850,151.130
824,2046,Wareemba,NSW,-33.850,151.130
825,2047,Drummoyne,NSW,-33.850,151.150
826,2048,Stanmore,NSW,-33.900,151.170
827,2048,Westgate,NSW,-33.900,151.170
828,2049,Lewisham,NSW,-33.890,151.140
829,2049,Petersham,NSW,-33.890,151.140
830,2049,"Petersham North",NSW,-33.890,151.140
831,2050,Camperdown,NSW,-33.890,151.180
832,2050,"Missenden Road",NSW,-33.890,151.180
833,2052,"Unsw Sydney",NSW,-33.910,151.230
834,2055,"North Sydney",NSW,-33.800,151.100
835,2057,Chatswood,NSW,-33.790,151.190
836,2058,"Northern Suburbs MC",NSW,0.000,0.000
837,2059,"North Sydney",NSW,-33.800,151.100
838,2060,"Hmas Platypus",NSW,-33.840,151.190
839,2060,"Hmas Waterhen",NSW,-33.840,151.190
840,2060,"Lavender Bay",NSW,-33.840,151.190
841,2060,"Mcmahons Point",NSW,-33.840,151.190
842,2060,"North Sydney",NSW,-33.840,151.190
843,2060,"North Sydney Shoppingworld",NSW,-33.840,151.190
844,2060,Waverton,NSW,-33.840,151.190
845,2061,Kirribilli,NSW,-33.850,151.210
846,2061,"Milsons Point",NSW,-33.850,151.210
847,2062,Cammeray,NSW,-33.820,151.210
848,2063,Northbridge,NSW,-33.820,151.220
849,2064,Artarmon,NSW,-33.810,151.190
850,2065,"Crows Nest",NSW,-33.830,151.200
851,2065,Greenwich,NSW,-33.830,151.200
852,2065,Naremburn,NSW,-33.830,151.200
853,2065,"Royal North Shore Hospital",NSW,-33.830,151.200
854,2065,"St Leonards",NSW,-33.830,151.200
855,2065,Wollstonecraft,NSW,-33.830,151.200
856,2066,"Lane Cove",NSW,-33.810,151.170
857,2066,"Lane Cove North",NSW,-33.810,151.170
858,2066,"Lane Cove West",NSW,-33.810,151.170
859,2066,"Linley Point",NSW,-33.810,151.170
860,2066,Longueville,NSW,-33.810,151.170
861,2066,Northwood,NSW,-33.810,151.170
862,2066,Riverview,NSW,-33.810,151.170
863,2067,Chatswood,NSW,-33.800,151.190
864,2067,"Chatswood West",NSW,-33.800,151.190
865,2068,Castlecrag,NSW,-33.800,151.210
866,2068,"Middle Cove",NSW,-33.800,151.210
867,2068,"North Willoughby",NSW,-33.800,151.210
868,2068,Willoughby,NSW,-33.800,151.210
869,2068,"Willoughby East",NSW,-33.800,151.210
870,2068,"Willoughby North",NSW,-33.800,151.210
871,2069,"Castle Cove",NSW,-33.780,151.200
872,2069,Roseville,NSW,-33.780,151.200
873,2069,"Roseville Chase",NSW,-33.780,151.200
874,2070,"East Lindfield",NSW,-33.770,151.190
875,2070,Lindfield,NSW,-33.770,151.190
876,2070,"Lindfield West",NSW,-33.770,151.190
877,2071,"East Killara",NSW,-33.750,151.170
878,2071,Killara,NSW,-33.750,151.170
879,2072,Gordon,NSW,-33.760,151.160
880,2073,Pymble,NSW,-33.740,151.140
881,2073,"West Pymble",NSW,-33.740,151.140
882,2074,"North Turramurra",NSW,-33.710,151.150
883,2074,"South Turramurra",NSW,-33.710,151.150
884,2074,Turramurra,NSW,-33.710,151.150
885,2074,Warrawee,NSW,-33.710,151.150
886,2075,"St Ives",NSW,-33.730,151.160
887,2075,"St Ives Chase",NSW,-33.730,151.160
888,2076,Normanhurst,NSW,-33.720,151.100
889,2076,"North Wahroonga",NSW,-33.720,151.100
890,2076,Wahroonga,NSW,-33.720,151.100
891,2077,Asquith,NSW,-33.690,151.110
892,2077,Hornsby,NSW,-33.690,151.110
893,2077,"Hornsby Heights",NSW,-33.690,151.110
894,2077,Waitara,NSW,-33.690,151.110
895,2079,"Mount Colah",NSW,-33.660,151.120
896,2080,"Mount Kuring-Gai",NSW,-33.630,151.230
897,2081,Berowra,NSW,-33.620,151.150
898,2081,Cowan,NSW,-33.620,151.150
899,2082,"Berowra Creek",NSW,-33.610,151.140
900,2082,"Berowra Heights",NSW,-33.610,151.140
901,2082,"Berowra Waters",NSW,-33.610,151.140
902,2083,"Bar Point",NSW,-33.510,151.160
903,2083,Brooklyn,NSW,-33.510,151.160
904,2083,"Cheero Point",NSW,-33.510,151.160
905,2083,"Cogra Bay",NSW,-33.510,151.160
906,2083,"Dangar Island",NSW,-33.510,151.160
907,2083,"Milsons Passage",NSW,-33.510,151.160
908,2083,"Mooney Mooney",NSW,-33.510,151.160
909,2084,"Cottage Point",NSW,-33.620,151.200
910,2084,"Duffys Forest",NSW,-33.620,151.200
911,2084,"Terrey Hills",NSW,-33.620,151.200
912,2085,Belrose,NSW,-33.740,151.210
913,2085,"Belrose West",NSW,-33.740,151.210
914,2085,Davidson,NSW,-33.740,151.210
915,2086,"Frenchs Forest",NSW,-33.750,151.230
916,2086,"Frenchs Forest East",NSW,-33.750,151.230
917,2087,Forestville,NSW,-33.760,151.210
918,2087,"Killarney Heights",NSW,-33.760,151.210
919,2088,Mosman,NSW,-33.830,151.240
920,2088,"Spit Junction",NSW,-33.830,151.240
921,2089,"Neutral Bay",NSW,-33.830,151.220
922,2089,"Neutral Bay Junction",NSW,-33.830,151.220
923,2090,Cremorne,NSW,-33.830,151.230
924,2090,"Cremorne Junction",NSW,-33.830,151.230
925,2090,"Cremorne Point",NSW,-33.830,151.230
926,2091,"Hmas Penguin",NSW,0.000,0.000
927,2092,Seaforth,NSW,-33.800,151.250
928,2093,Balgowlah,NSW,-33.790,151.260
929,2093,"Balgowlah Heights",NSW,-33.790,151.260
930,2093,Clontarf,NSW,-33.790,151.260
931,2093,"Manly Vale",NSW,-33.790,151.260
932,2093,"North Balgowlah",NSW,-33.790,151.260
933,2094,Fairlight,NSW,-33.790,151.270
934,2095,Manly,NSW,-33.800,151.290
935,2095,"Manly East",NSW,-33.800,151.290
936,2096,"Curl Curl",NSW,-33.770,151.290
937,2096,Freshwater,NSW,-33.770,151.290
938,2096,Queenscliff,NSW,-33.770,151.290
939,2097,Collaroy,NSW,-33.740,151.300
940,2097,"Collaroy Beach",NSW,-33.740,151.300
941,2097,"Collaroy Plateau West",NSW,-33.740,151.300
942,2097,"Wheeler Heights",NSW,-33.740,151.300
943,2099,Cromer,NSW,-33.740,151.280
944,2099,"Dee Why",NSW,-33.740,151.280
945,2099,Narraweena,NSW,-33.740,151.280
946,2099,"North Curl Curl",NSW,-33.740,151.280
947,2100,"Allambie Heights",NSW,-33.770,151.250
948,2100,"Beacon Hill",NSW,-33.770,151.250
949,2100,Brookvale,NSW,-33.770,151.250
950,2100,"North Manly",NSW,-33.770,151.250
951,2100,"Oxford Falls",NSW,-33.770,151.250
952,2100,"Warringah Mall",NSW,-33.770,151.250
953,2101,"Elanora Heights",NSW,-33.700,151.280
954,2101,Ingleside,NSW,-33.700,151.280
955,2101,Narrabeen,NSW,-33.700,151.280
956,2101,"North Narrabeen",NSW,-33.700,151.280
957,2102,Warriewood,NSW,-33.690,151.300
958,2102,"Warriewood Shopping Square",NSW,-33.690,151.300
959,2103,"Mona Vale",NSW,-33.680,151.300
960,2104,Bayview,NSW,-33.660,151.300
961,2105,"Church Point",NSW,-33.640,151.280
962,2105,"Elvina Bay",NSW,-33.640,151.280
963,2105,"Lovett Bay",NSW,-33.640,151.280
964,2105,"Morning Bay",NSW,-33.640,151.280
965,2105,"Scotland Island",NSW,-33.640,151.280
966,2106,Newport,NSW,-33.660,151.310
967,2106,"Newport Beach",NSW,-33.660,151.310
968,2107,Avalon,NSW,-33.640,151.330
969,2107,"Avalon Beach",NSW,-33.640,151.330
970,2107,Bilgola,NSW,-33.640,151.330
971,2107,Clareville,NSW,-33.640,151.330
972,2107,"Whale Beach",NSW,-33.640,151.330
973,2108,"Coasters Retreat",NSW,-33.600,151.300
974,2108,"Great Mackerel Beach",NSW,-33.600,151.300
975,2108,"Palm Beach",NSW,-33.600,151.300
976,2109,"Macquarie University",NSW,-33.770,151.110
977,2110,"Hunters Hill",NSW,-33.830,151.150
978,2110,Woolwich,NSW,-33.830,151.150
979,2111,"Boronia Park",NSW,-33.820,151.140
980,2111,Gladesville,NSW,-33.820,151.140
981,2111,Henley,NSW,-33.820,151.140
982,2111,"Huntleys Cove",NSW,-33.820,151.140
983,2111,"Huntleys Point",NSW,-33.820,151.140
984,2111,"Monash Park",NSW,-33.820,151.140
985,2111,"Tennyson Point",NSW,-33.820,151.140
986,2112,"Denistone East",NSW,-33.800,151.100
987,2112,Putney,NSW,-33.800,151.100
988,2112,Ryde,NSW,-33.800,151.100
989,2113,"Blenheim Road",NSW,-33.800,151.130
990,2113,"East Ryde",NSW,-33.800,151.130
991,2113,"Macquarie Centre",NSW,-33.800,151.130
992,2113,"Macquarie Park",NSW,-33.800,151.130
993,2113,"North Ryde",NSW,-33.800,151.130
994,2114,Denistone,NSW,-33.800,151.080
995,2114,"Denistone West",NSW,-33.800,151.080
996,2114,Meadowbank,NSW,-33.800,151.080
997,2114,"Melrose Park",NSW,-33.800,151.080
998,2114,"West Ryde",NSW,-33.800,151.080
999,2115,Ermington,NSW,-33.810,151.050
1000,2116,Rydalmere,NSW,-33.810,151.030
1001,2117,Dundas,NSW,-33.800,151.040
1002,2117,"Dundas Valley",NSW,-33.800,151.040
1003,2117,Oatlands,NSW,-33.800,151.040
1004,2117,Telopea,NSW,-33.800,151.040
1005,2118,Carlingford,NSW,-33.780,151.050
1006,2118,"Carlingford Court",NSW,-33.780,151.050
1007,2118,"Carlingford North",NSW,-33.780,151.050
1008,2118,Kingsdene,NSW,-33.780,151.050
1009,2119,Beecroft,NSW,-33.750,151.060
1010,2119,Cheltenham,NSW,-33.750,151.060
1011,2120,"Pennant Hills",NSW,-33.740,151.070
1012,2120,Thornleigh,NSW,-33.740,151.070
1013,2120,Westleigh,NSW,-33.740,151.070
1014,2121,Epping,NSW,-33.770,151.080
1015,2121,"North Epping",NSW,-33.770,151.080
1016,2122,Eastwood,NSW,-33.790,151.080
1017,2122,Marsfield,NSW,-33.790,151.080
1018,2123,Parramatta,NSW,-33.890,151.140
1019,2124,Parramatta,NSW,-33.890,151.140
1020,2125,"West Pennant Hills",NSW,-33.750,151.040
1021,2126,Cherrybrook,NSW,-33.720,151.040
1022,2127,Newington,NSW,-33.850,151.080
1023,2127,"Sydney Olympic Park",NSW,-33.850,151.080
1024,2127,"Wentworth Point",NSW,-33.850,151.080
1025,2128,Silverwater,NSW,-33.840,151.050
1026,2129,"Sydney Markets",NSW,-33.870,151.190
1027,2130,"Summer Hill",NSW,-33.890,151.140
1028,2131,Ashfield,NSW,-33.890,151.130
1029,2132,Croydon,NSW,-33.880,151.110
1030,2133,"Croydon Park",NSW,-33.900,151.110
1031,2133,"Enfield South",NSW,-33.900,151.110
1032,2134,Burwood,NSW,-33.880,151.100
1033,2134,"Burwood North",NSW,-33.880,151.100
1034,2135,Strathfield,NSW,-33.870,151.090
1035,2136,"Burwood Heights",NSW,-33.890,151.100
1036,2136,Enfield,NSW,-33.890,151.100
1037,2136,"Strathfield South",NSW,-33.890,151.100
1038,2137,"Breakfast Point",NSW,-33.840,151.110
1039,2137,Cabarita,NSW,-33.840,151.110
1040,2137,Concord,NSW,-33.840,151.110
1041,2137,Mortlake,NSW,-33.840,151.110
1042,2137,"North Strathfield",NSW,-33.840,151.110
1043,2138,"Concord West",NSW,-33.850,151.090
1044,2138,"Liberty Grove",NSW,-33.850,151.090
1045,2138,Rhodes,NSW,-33.850,151.090
1046,2139,"Concord Repatriation Hospital",NSW,-33.840,151.100
1047,2140,Homebush,NSW,-33.860,151.080
1048,2140,"Homebush South",NSW,-33.860,151.080
1049,2140,"Homebush West",NSW,-33.860,151.080
1050,2141,Berala,NSW,-33.870,151.030
1051,2141,Lidcombe,NSW,-33.870,151.030
1052,2141,"Lidcombe North",NSW,-33.870,151.030
1053,2141,Rookwood,NSW,-33.870,151.030
1054,2142,Blaxcell,NSW,-33.850,151.010
1055,2142,Camellia,NSW,-33.850,151.010
1056,2142,Clyde,NSW,-33.850,151.010
1057,2142,Granville,NSW,-33.850,151.010
1058,2142,Holroyd,NSW,-33.850,151.010
1059,2142,Rosehill,NSW,-33.850,151.010
1060,2142,"South Granville",NSW,-33.850,151.010
1061,2143,Birrong,NSW,-33.890,151.020
1062,2143,"Potts Hill",NSW,-33.890,151.020
1063,2143,"Regents Park",NSW,-33.890,151.020
1064,2144,Auburn,NSW,-33.850,151.030
1065,2145,"Constitution Hill",NSW,-33.800,150.950
1066,2145,Girraween,NSW,-33.800,150.950
1067,2145,Greystanes,NSW,-33.800,150.950
1068,2145,"Mays Hill",NSW,-33.800,150.950
1069,2145,Pemulwuy,NSW,-33.800,150.950
1070,2145,"Pendle Hill",NSW,-33.800,150.950
1071,2145,"South Wentworthville",NSW,-33.800,150.950
1072,2145,Wentworthville,NSW,-33.800,150.950
1073,2145,Westmead,NSW,-33.800,150.950
1074,2146,"Old Toongabbie",NSW,-33.790,150.970
1075,2146,Toongabbie,NSW,-33.790,150.970
1076,2146,"Toongabbie East",NSW,-33.790,150.970
1077,2147,"Kings Langley",NSW,-33.740,150.920
1078,2147,"Lalor Park",NSW,-33.740,150.920
1079,2147,"Seven Hills",NSW,-33.740,150.920
1080,2147,"Seven Hills West",NSW,-33.740,150.920
1081,2148,"Arndell Park",NSW,-33.790,150.870
1082,2148,Blacktown,NSW,-33.790,150.870
1083,2148,"Blacktown Westpoint",NSW,-33.790,150.870
1084,2148,Huntingwood,NSW,-33.790,150.870
1085,2148,"Kings Park",NSW,-33.790,150.870
1086,2148,Marayong,NSW,-33.790,150.870
1087,2148,Prospect,NSW,-33.790,150.870
1088,2150,"Harris Park",NSW,-33.820,151.010
1089,2150,Parramatta,NSW,-33.820,151.010
1090,2150,"Parramatta Westfield",NSW,-33.820,151.010
1091,2151,"North Parramatta",NSW,-33.800,151.010
1092,2151,"North Rocks",NSW,-33.800,151.010
1093,2152,Northmead,NSW,-33.780,150.990
1094,2153,"Baulkham Hills",NSW,-33.760,150.990
1095,2153,"Bella Vista",NSW,-33.760,150.990
1096,2153,"Winston Hills",NSW,-33.760,150.990
1097,2154,"Castle Hill",NSW,-33.730,151.010
1098,2155,"Beaumont Hills",NSW,-33.700,150.950
1099,2155,Kellyville,NSW,-33.700,150.950
1100,2155,"Kellyville Ridge",NSW,-33.700,150.950
1101,2155,"Rouse Hill",NSW,-33.700,150.950
1102,2156,Annangrove,NSW,-33.660,150.940
1103,2156,Glenhaven,NSW,-33.660,150.940
1104,2156,Kenthurst,NSW,-33.660,150.940
1105,2157,Canoelands,NSW,-33.510,151.060
1106,2157,"Forest Glen",NSW,-33.510,151.060
1107,2157,Glenorie,NSW,-33.510,151.060
1108,2158,Dural,NSW,-33.680,151.030
1109,2158,"Middle Dural",NSW,-33.680,151.030
1110,2158,"Round Corner",NSW,-33.680,151.030
1111,2159,Arcadia,NSW,-33.620,151.050
1112,2159,Berrilee,NSW,-33.620,151.050
1113,2159,Fiddletown,NSW,-33.620,151.050
1114,2159,Galston,NSW,-33.620,151.050
1115,2160,Merrylands,NSW,-33.840,150.990
1116,2160,"Merrylands West",NSW,-33.840,150.990
1117,2161,Guildford,NSW,-33.850,150.990
1118,2161,"Guildford West",NSW,-33.850,150.990
1119,2161,"Old Guildford",NSW,-33.850,150.990
1120,2161,Yennora,NSW,-33.850,150.990
1121,2162,"Chester Hill",NSW,-33.880,151.000
1122,2162,Sefton,NSW,-33.880,151.000
1123,2163,Carramar,NSW,-33.880,150.960
1124,2163,Lansdowne,NSW,-33.880,150.960
1125,2163,Villawood,NSW,-33.880,150.960
1126,2164,Smithfield,NSW,-33.850,150.940
1127,2164,"Smithfield West",NSW,-33.850,150.940
1128,2164,"Wetherill Park",NSW,-33.850,150.940
1129,2164,Woodpark,NSW,-33.850,150.940
1130,2165,Fairfield,NSW,-33.870,150.960
1131,2165,"Fairfield East",NSW,-33.870,150.960
1132,2165,"Fairfield Heights",NSW,-33.870,150.960
1133,2165,"Fairfield West",NSW,-33.870,150.960
1134,2166,Cabramatta,NSW,-33.900,150.940
1135,2166,"Cabramatta West",NSW,-33.900,150.940
1136,2166,"Canley Heights",NSW,-33.900,150.940
1137,2166,"Canley Vale",NSW,-33.900,150.940
1138,2166,Lansvale,NSW,-33.900,150.940
1139,2167,Glenfield,NSW,-33.970,150.890
1140,2168,Ashcroft,NSW,-33.920,150.900
1141,2168,Busby,NSW,-33.920,150.900
1142,2168,Cartwright,NSW,-33.920,150.900
1143,2168,"Green Valley",NSW,-33.920,150.900
1144,2168,Heckenberg,NSW,-33.920,150.900
1145,2168,Hinchinbrook,NSW,-33.920,150.900
1146,2168,Miller,NSW,-33.920,150.900
1147,2168,Sadleir,NSW,-33.920,150.900
1148,2170,Casula,NSW,-33.950,150.910
1149,2170,"Casula Mall",NSW,-33.950,150.910
1150,2170,"Chipping Norton",NSW,-33.950,150.910
1151,2170,Hammondville,NSW,-33.950,150.910
1152,2170,Liverpool,NSW,-33.950,150.910
1153,2170,"Liverpool South",NSW,-33.950,150.910
1154,2170,"Liverpool Westfield",NSW,-33.950,150.910
1155,2170,Lurnea,NSW,-33.950,150.910
1156,2170,Moorebank,NSW,-33.950,150.910
1157,2170,"Mount Pritchard",NSW,-33.950,150.910
1158,2170,Prestons,NSW,-33.950,150.910
1159,2170,"Warwick Farm",NSW,-33.950,150.910
1160,2171,"Cecil Hills",NSW,-33.880,150.850
1161,2171,"Elizabeth Hills",NSW,-33.880,150.850
1162,2171,"Horningsea Park",NSW,-33.880,150.850
1163,2171,"Hoxton Park",NSW,-33.880,150.850
1164,2171,"Len Waters Estate",NSW,-33.880,150.850
1165,2171,"Middleton Grange",NSW,-33.880,150.850
1166,2171,"West Hoxton",NSW,-33.880,150.850
1167,2172,"Pleasure Point",NSW,-33.970,150.990
1168,2172,"Sandy Point",NSW,-33.970,150.990
1169,2172,"Voyager Point",NSW,-33.970,150.990
1170,2173,Holsworthy,NSW,-33.950,150.950
1171,2173,"Wattle Grove",NSW,-33.950,150.950
1172,2174,"Edmondson Park",NSW,0.000,0.000
1173,2174,"Ingleburn Milpo",NSW,0.000,0.000
1174,2175,"Horsley Park",NSW,-33.850,150.850
1175,2176,Abbotsbury,NSW,-33.880,150.870
1176,2176,"Bossley Park",NSW,-33.880,150.870
1177,2176,"Edensor Park",NSW,-33.880,150.870
1178,2176,"Greenfield Park",NSW,-33.880,150.870
1179,2176,Prairiewood,NSW,-33.880,150.870
1180,2176,"St Johns Park",NSW,-33.880,150.870
1181,2176,Wakeley,NSW,-33.880,150.870
1182,2177,Bonnyrigg,NSW,-33.890,150.890
1183,2177,"Bonnyrigg Heights",NSW,-33.890,150.890
1184,2178,"Cecil Park",NSW,-33.870,150.840
1185,2178,"Kemps Creek",NSW,-33.870,150.840
1186,2178,"Mount Vernon",NSW,-33.870,150.840
1187,2179,Austral,NSW,-33.930,150.810
1188,2179,Leppington,NSW,-33.930,150.810
1189,2190,Chullora,NSW,-33.890,151.060
1190,2190,Greenacre,NSW,-33.890,151.060
1191,2190,"Mount Lewis",NSW,-33.890,151.060
1192,2191,Belfield,NSW,-33.900,151.080
1193,2192,Belmore,NSW,-33.920,151.090
1194,2193,Ashbury,NSW,-33.900,151.120
1195,2193,Canterbury,NSW,-33.900,151.120
1196,2193,"Hurlstone Park",NSW,-33.900,151.120
1197,2194,Campsie,NSW,-33.910,151.100
1198,2195,Lakemba,NSW,-33.920,151.080
1199,2195,"Wiley Park",NSW,-33.920,151.080
1200,2196,Punchbowl,NSW,-33.930,151.050
1201,2196,Roselands,NSW,-33.930,151.050
1202,2197,"Bass Hill",NSW,-33.900,150.990
1203,2198,"Georges Hall",NSW,-33.910,150.980
1204,2199,Yagoona,NSW,-33.910,151.030
1205,2199,"Yagoona West",NSW,-33.910,151.030
1206,2200,Bankstown,NSW,-33.920,151.030
1207,2200,"Bankstown Aerodrome",NSW,-33.920,151.030
1208,2200,"Bankstown North",NSW,-33.920,151.030
1209,2200,"Bankstown Square",NSW,-33.920,151.030
1210,2200,"Condell Park",NSW,-33.920,151.030
1211,2200,Manahan,NSW,-33.920,151.030
1212,2200,"Mount Lewis",NSW,-33.920,151.030
1213,2203,"Dulwich Hill",NSW,-33.900,151.140
1214,2204,Marrickville,NSW,-33.910,151.160
1215,2204,"Marrickville Metro",NSW,-33.910,151.160
1216,2204,"Marrickville South",NSW,-33.910,151.160
1217,2205,Arncliffe,NSW,-33.940,151.150
1218,2205,Turrella,NSW,-33.940,151.150
1219,2205,"Wolli Creek",NSW,-33.940,151.150
1220,2206,"Clemton Park",NSW,-33.930,151.100
1221,2206,Earlwood,NSW,-33.930,151.100
1222,2207,"Bardwell Park",NSW,-33.930,151.130
1223,2207,"Bardwell Valley",NSW,-33.930,151.130
1224,2207,Bexley,NSW,-33.930,151.130
1225,2207,"Bexley North",NSW,-33.930,151.130
1226,2207,"Bexley South",NSW,-33.930,151.130
1227,2208,Kingsgrove,NSW,-33.940,151.100
1228,2208,"Kingsway West",NSW,-33.940,151.100
1229,2209,"Beverly Hills",NSW,-33.950,151.080
1230,2209,Narwee,NSW,-33.950,151.080
1231,2210,Lugarno,NSW,-33.980,151.050
1232,2210,Peakhurst,NSW,-33.980,151.050
1233,2210,"Peakhurst Heights",NSW,-33.980,151.050
1234,2210,Riverwood,NSW,-33.980,151.050
1235,2211,Padstow,NSW,-33.950,151.040
1236,2211,"Padstow Heights",NSW,-33.950,151.040
1237,2212,Revesby,NSW,-33.950,151.020
1238,2212,"Revesby Heights",NSW,-33.950,151.020
1239,2212,"Revesby North",NSW,-33.950,151.020
1240,2213,"East Hills",NSW,-33.960,150.990
1241,2213,Panania,NSW,-33.960,150.990
1242,2213,"Picnic Point",NSW,-33.960,150.990
1243,2214,Milperra,NSW,-33.940,150.990
1244,2216,Banksia,NSW,-33.950,151.140
1245,2216,Brighton-Le-Sands,NSW,-33.950,151.140
1246,2216,Kyeemagh,NSW,-33.950,151.140
1247,2216,Rockdale,NSW,-33.950,151.140
1248,2217,"Beverley Park",NSW,-33.980,151.130
1249,2217,Kogarah,NSW,-33.980,151.130
1250,2217,"Kogarah Bay",NSW,-33.980,151.130
1251,2217,Monterey,NSW,-33.980,151.130
1252,2217,Ramsgate,NSW,-33.980,151.130
1253,2217,"Ramsgate Beach",NSW,-33.980,151.130
1254,2218,Allawah,NSW,-33.970,151.110
1255,2218,Carlton,NSW,-33.970,151.110
1256,2219,"Dolls Point",NSW,-33.990,151.150
1257,2219,Sandringham,NSW,-33.990,151.150
1258,2219,"Sans Souci",NSW,-33.990,151.150
1259,2220,Hurstville,NSW,-33.970,151.100
1260,2220,"Hurstville Grove",NSW,-33.970,151.100
1261,2220,"Hurstville Westfield",NSW,-33.970,151.100
1262,2221,Blakehurst,NSW,-33.990,151.110
1263,2221,"Carss Park",NSW,-33.990,151.110
1264,2221,"Connells Point",NSW,-33.990,151.110
1265,2221,"Kyle Bay",NSW,-33.990,151.110
1266,2221,"South Hurstville",NSW,-33.990,151.110
1267,2222,Penshurst,NSW,-33.960,151.090
1268,2223,Mortdale,NSW,-33.970,151.080
1269,2223,Oatley,NSW,-33.970,151.080
1270,2224,"Kangaroo Point",NSW,-34.000,151.100
1271,2224,Sylvania,NSW,-34.000,151.100
1272,2224,"Sylvania Southgate",NSW,-34.000,151.100
1273,2224,"Sylvania Waters",NSW,-34.000,151.100
1274,2225,"Oyster Bay",NSW,-34.000,151.090
1275,2226,"Bonnet Bay",NSW,-34.010,151.050
1276,2226,Como,NSW,-34.010,151.050
1277,2226,Jannali,NSW,-34.010,151.050
1278,2227,Gymea,NSW,-34.030,151.090
1279,2227,"Gymea Bay",NSW,-34.030,151.090
1280,2228,Miranda,NSW,-34.030,151.100
1281,2228,"Yowie Bay",NSW,-34.030,151.100
1282,2229,Caringbah,NSW,-34.040,151.120
1283,2229,"Caringbah South",NSW,-34.040,151.120
1284,2229,"Dolans Bay",NSW,-34.040,151.120
1285,2229,"Lilli Pilli",NSW,-34.040,151.120
1286,2229,"Port Hacking",NSW,-34.040,151.120
1287,2229,"Taren Point",NSW,-34.040,151.120
1288,2230,Bundeena,NSW,-34.090,151.150
1289,2230,Burraneer,NSW,-34.090,151.150
1290,2230,Cronulla,NSW,-34.090,151.150
1291,2230,Maianbar,NSW,-34.090,151.150
1292,2230,Woolooware,NSW,-34.090,151.150
1293,2231,Kurnell,NSW,-34.010,151.200
1294,2232,Audley,NSW,-34.080,151.060
1295,2232,Garie,NSW,-34.080,151.060
1296,2232,"Grays Point",NSW,-34.080,151.060
1297,2232,Kareela,NSW,-34.080,151.060
1298,2232,Kirrawee,NSW,-34.080,151.060
1299,2232,Loftus,NSW,-34.080,151.060
1300,2232,Sutherland,NSW,-34.080,151.060
1301,2232,Woronora,NSW,-34.080,151.060
1302,2233,Engadine,NSW,-34.070,151.010
1303,2233,Heathcote,NSW,-34.070,151.010
1304,2233,Waterfall,NSW,-34.070,151.010
1305,2233,"Woronora Heights",NSW,-34.070,151.010
1306,2233,Yarrawarrah,NSW,-34.070,151.010
1307,2234,"Alfords Point",NSW,-33.990,151.020
1308,2234,Bangor,NSW,-33.990,151.020
1309,2234,"Barden Ridge",NSW,-33.990,151.020
1310,2234,Illawong,NSW,-33.990,151.020
1311,2234,"Lucas Heights",NSW,-33.990,151.020
1312,2234,Menai,NSW,-33.990,151.020
1313,2234,"Menai Central",NSW,-33.990,151.020
1314,2250,Bucketty,NSW,-33.110,151.140
1315,2250,Calga,NSW,-33.110,151.140
1316,2250,"Central Mangrove",NSW,-33.110,151.140
1317,2250,"East Gosford",NSW,-33.110,151.140
1318,2250,Erina,NSW,-33.110,151.140
1319,2250,"Erina Fair",NSW,-33.110,151.140
1320,2250,"Glenworth Valley",NSW,-33.110,151.140
1321,2250,Gosford,NSW,-33.110,151.140
1322,2250,Greengrove,NSW,-33.110,151.140
1323,2250,Holgate,NSW,-33.110,151.140
1324,2250,Kariong,NSW,-33.110,151.140
1325,2250,Kulnura,NSW,-33.110,151.140
1326,2250,Lisarow,NSW,-33.110,151.140
1327,2250,"Lower Mangrove",NSW,-33.110,151.140
1328,2250,"Mangrove Creek",NSW,-33.110,151.140
1329,2250,"Mangrove Mountain",NSW,-33.110,151.140
1330,2250,Matcham,NSW,-33.110,151.140
1331,2250,"Mooney Mooney Creek",NSW,-33.110,151.140
1332,2250,"Mount Elliot",NSW,-33.110,151.140
1333,2250,"Mount White",NSW,-33.110,151.140
1334,2250,Narara,NSW,-33.110,151.140
1335,2250,"Niagara Park",NSW,-33.110,151.140
1336,2250,"North Gosford",NSW,-33.110,151.140
1337,2250,"Peats Ridge",NSW,-33.110,151.140
1338,2250,"Point Clare",NSW,-33.110,151.140
1339,2250,"Point Frederick",NSW,-33.110,151.140
1340,2250,Somersby,NSW,-33.110,151.140
1341,2250,Springfield,NSW,-33.110,151.140
1342,2250,Tascott,NSW,-33.110,151.140
1343,2250,"Ten Mile Hollow",NSW,-33.110,151.140
1344,2250,"Upper Mangrove",NSW,-33.110,151.140
1345,2250,"Wendoree Park",NSW,-33.110,151.140
1346,2250,"West Gosford",NSW,-33.110,151.140
1347,2250,Wyoming,NSW,-33.110,151.140
1348,2251,"Avoca Beach",NSW,-33.460,151.430
1349,2251,Bensville,NSW,-33.460,151.430
1350,2251,Bouddi,NSW,-33.460,151.430
1351,2251,Copacabana,NSW,-33.460,151.430
1352,2251,Davistown,NSW,-33.460,151.430
1353,2251,"Green Point",NSW,-33.460,151.430
1354,2251,Kincumber,NSW,-33.460,151.430
1355,2251,"Kincumber South",NSW,-33.460,151.430
1356,2251,"Macmasters Beach",NSW,-33.460,151.430
1357,2251,"Picketts Valley",NSW,-33.460,151.430
1358,2251,Saratoga,NSW,-33.460,151.430
1359,2251,Yattalunga,NSW,-33.460,151.430
1360,2252,"Central Coast MC",NSW,0.000,0.000
1361,2256,Blackwall,NSW,-33.500,151.330
1362,2256,"Horsfield Bay",NSW,-33.500,151.330
1363,2256,Koolewong,NSW,-33.500,151.330
1364,2256,"Little Wobby",NSW,-33.500,151.330
1365,2256,Patonga,NSW,-33.500,151.330
1366,2256,"Pearl Beach",NSW,-33.500,151.330
1367,2256,"Phegans Bay",NSW,-33.500,151.330
1368,2256,Wondabyne,NSW,-33.500,151.330
1369,2256,"Woy Woy",NSW,-33.500,151.330
1370,2256,"Woy Woy Bay",NSW,-33.500,151.330
1371,2257,"Booker Bay",NSW,-33.510,151.340
1372,2257,"Box Head",NSW,-33.510,151.340
1373,2257,"Daleys Point",NSW,-33.510,151.340
1374,2257,"Empire Bay",NSW,-33.510,151.340
1375,2257,"Ettalong Beach",NSW,-33.510,151.340
1376,2257,"Hardys Bay",NSW,-33.510,151.340
1377,2257,Killcare,NSW,-33.510,151.340
1378,2257,"Killcare Heights",NSW,-33.510,151.340
1379,2257,"Pretty Beach",NSW,-33.510,151.340
1380,2257,"St Huberts Island",NSW,-33.510,151.340
1381,2257,"Umina Beach",NSW,-33.510,151.340
1382,2257,Wagstaffe,NSW,-33.510,151.340
1383,2258,Fountaindale,NSW,-33.340,151.390
1384,2258,"Kangy Angy",NSW,-33.340,151.390
1385,2258,Ourimbah,NSW,-33.340,151.390
1386,2258,"Palm Grove",NSW,-33.340,151.390
1387,2258,Palmdale,NSW,-33.340,151.390
1388,2259,Alison,NSW,-33.270,151.400
1389,2259,"Bushells Ridge",NSW,-33.270,151.400
1390,2259,"Cedar Brush Creek",NSW,-33.270,151.400
1391,2259,"Chain Valley Bay",NSW,-33.270,151.400
1392,2259,"Crangan Bay",NSW,-33.270,151.400
1393,2259,Dooralong,NSW,-33.270,151.400
1394,2259,"Durren Durren",NSW,-33.270,151.400
1395,2259,"Frazer Park",NSW,-33.270,151.400
1396,2259,Freemans,NSW,-33.270,151.400
1397,2259,Gwandalan,NSW,-33.270,151.400
